[{"OBJECT_NAME":"OPS 7218 (TRANSIT 16)","OBJECT_ID":"1967-048A","EPOCH":"2026-03-05T07:05:50.229600","MEAN_MOTION":13.50742966,"ECCENTRICITY":0.00183796,"INCLINATION":89.681,"RA_OF_ASC_NODE":351.3089,"ARG_OF_PERICENTER":235.1528,"MEAN_ANOMALY":293.0573,"EPHEMERIS_TYPE":0,"CLASSIFICATION_TYPE":"U","NORAD_CAT_ID":2807,"ELEMENT_SET_NO":999,"REV_AT_EPOCH":89390,"BSTAR":0.00023358198,"MEAN_MOTION_DOT":1.6e-6,"MEAN_MOTION_DDOT":0},{"OBJECT_NAME":"OPS 4947 (TRANSIT 17)","OBJECT_ID":"1967-092A","EPOCH":"2026-03-05T08:01:37.898688","MEAN_MOTION":13.53476762,"ECCENTRICITY":0.00478226,"INCLINATION":89.2559,"RA_OF_ASC_NODE":18.1434,"ARG_OF_PERICENTER":358.6506,"MEAN_ANOMALY":153.8829,"EPHEMERIS_TYPE":0,"CLASSIFICATION_TYPE":"U","NORAD_CAT_ID":2965,"ELEMENT_SET_NO":999,"REV_AT_EPOCH":88214,"BSTAR":0.00026323195,"MEAN_MOTION_DOT":1.89e-6,"MEAN_MOTION_DDOT":0},{"OBJECT_NAME":"OPS 7034 (TRANSIT 18)","OBJECT_ID":"1968-012A","EPOCH":"2026-03-05T02:47:11.852160","MEAN_MOTION":13.51588143,"ECCENTRICITY":0.00721683,"INCLINATION":90.0216,"RA_OF_ASC_NODE":273.8596,"ARG_OF_PERICENTER":292.574,"MEAN_ANOMALY":186.5341,"EPHEMERIS_TYPE":0,"CLASSIFICATION_TYPE":"U","NORAD_CAT_ID":3133,"ELEMENT_SET_NO":999,"REV_AT_EPOCH":58031,"BSTAR":0.00020557572,"MEAN_MOTION_DOT":1.45e-6,"MEAN_MOTION_DDOT":0},{"OBJECT_NAME":"NNSS 19 (TRANSIT 19)","OBJECT_ID":"1970-067A","EPOCH":"2026-03-05T04:29:36.529440","MEAN_MOTION":13.51337249,"ECCENTRICITY":0.017321,"INCLINATION":90.005,"RA_OF_ASC_NODE":234.5782,"ARG_OF_PERICENTER":54.4889,"MEAN_ANOMALY":307.2281,"EPHEMERIS_TYPE":0,"CLASSIFICATION_TYPE":"U","NORAD_CAT_ID":4507,"ELEMENT_SET_NO":999,"REV_AT_EPOCH":73335,"BSTAR":0.0002029063,"MEAN_MOTION_DOT":1.55e-6,"MEAN_MOTION_DDOT":0},{"OBJECT_NAME":"NNSS 20 (TRANSIT 20)","OBJECT_ID":"1973-081A","EPOCH":"2026-03-05T01:22:32.839392","MEAN_MOTION":13.71473061,"ECCENTRICITY":0.01542404,"INCLINATION":89.8511,"RA_OF_ASC_NODE":253.8017,"ARG_OF_PERICENTER":190.7081,"MEAN_ANOMALY":169.0787,"EPHEMERIS_TYPE":0,"CLASSIFICATION_TYPE":"U","NORAD_CAT_ID":6909,"ELEMENT_SET_NO":999,"REV_AT_EPOCH":81489,"BSTAR":0.00023333571,"MEAN_MOTION_DOT":2.39e-6,"MEAN_MOTION_DDOT":0},{"OBJECT_NAME":"TRANSAT","OBJECT_ID":"1977-106A","EPOCH":"2026-03-05T02:56:29.267808","MEAN_MOTION":13.48957294,"ECCENTRICITY":0.00241692,"INCLINATION":89.6396,"RA_OF_ASC_NODE":75.6408,"ARG_OF_PERICENTER":319.4819,"MEAN_ANOMALY":109.646,"EPHEMERIS_TYPE":0,"CLASSIFICATION_TYPE":"U","NORAD_CAT_ID":10457,"ELEMENT_SET_NO":999,"REV_AT_EPOCH":37854,"BSTAR":0.00011486723,"MEAN_MOTION_DOT":8.2e-7,"MEAN_MOTION_DDOT":0},{"OBJECT_NAME":"NOVA 1","OBJECT_ID":"1981-044A","EPOCH":"2026-03-05T03:38:48.141312","MEAN_MOTION":13.23286945,"ECCENTRICITY":0.00127137,"INCLINATION":89.8426,"RA_OF_ASC_NODE":90.1848,"ARG_OF_PERICENTER":232.304,"MEAN_ANOMALY":196.1591,"EPHEMERIS_TYPE":0,"CLASSIFICATION_TYPE":"U","NORAD_CAT_ID":12458,"ELEMENT_SET_NO":999,"REV_AT_EPOCH":16276,"BSTAR":4.9557911e-5,"MEAN_MOTION_DOT":3.0e-7,"MEAN_MOTION_DDOT":0},{"OBJECT_NAME":"NOVA 3","OBJECT_ID":"1984-110A","EPOCH":"2026-03-05T02:56:09.694752","MEAN_MOTION":13.2305632,"ECCENTRICITY":0.00334237,"INCLINATION":90.1128,"RA_OF_ASC_NODE":81.4663,"ARG_OF_PERICENTER":101.7569,"MEAN_ANOMALY":349.4716,"EPHEMERIS_TYPE":0,"CLASSIFICATION_TYPE":"U","NORAD_CAT_ID":15362,"ELEMENT_SET_NO":999,"REV_AT_EPOCH":99788,"BSTAR":0.00016886007,"MEAN_MOTION_DOT":8.0e-7,"MEAN_MOTION_DDOT":0},{"OBJECT_NAME":"OSCAR 30","OBJECT_ID":"1985-066A","EPOCH":"2026-03-05T02:50:52.890144","MEAN_MOTION":13.36094165,"ECCENTRICITY":0.01668628,"INCLINATION":90.1551,"RA_OF_ASC_NODE":101.163,"ARG_OF_PERICENTER":210.6986,"MEAN_ANOMALY":204.4839,"EPHEMERIS_TYPE":0,"CLASSIFICATION_TYPE":"U","NORAD_CAT_ID":15935,"ELEMENT_SET_NO":999,"REV_AT_EPOCH":97553,"BSTAR":0.00014817437,"MEAN_MOTION_DOT":9.0e-7,"MEAN_MOTION_DDOT":0},{"OBJECT_NAME":"OSCAR 24","OBJECT_ID":"1985-066B","EPOCH":"2026-03-05T06:26:43.075968","MEAN_MOTION":13.35951997,"ECCENTRICITY":0.01677084,"INCLINATION":90.1688,"RA_OF_ASC_NODE":93.7296,"ARG_OF_PERICENTER":216.8497,"MEAN_ANOMALY":231.9325,"EPHEMERIS_TYPE":0,"CLASSIFICATION_TYPE":"U","NORAD_CAT_ID":15936,"ELEMENT_SET_NO":999,"REV_AT_EPOCH":97745,"BSTAR":0.00017154332,"MEAN_MOTION_DOT":1.03e-6,"MEAN_MOTION_DDOT":0},{"OBJECT_NAME":"POLAR BEAR","OBJECT_ID":"1986-088A","EPOCH":"2026-03-05T07:54:16.078464","MEAN_MOTION":13.75269266,"ECCENTRICITY":0.00379263,"INCLINATION":89.6251,"RA_OF_ASC_NODE":180.49,"ARG_OF_PERICENTER":229.2648,"MEAN_ANOMALY":141.3197,"EPHEMERIS_TYPE":0,"CLASSIFICATION_TYPE":"U","NORAD_CAT_ID":17070,"ELEMENT_SET_NO":999,"REV_AT_EPOCH":97114,"BSTAR":0.00013208798,"MEAN_MOTION_DOT":1.38e-6,"MEAN_MOTION_DDOT":0},{"OBJECT_NAME":"OSCAR 27","OBJECT_ID":"1987-080A","EPOCH":"2026-03-05T01:15:55.370016","MEAN_MOTION":13.44923687,"ECCENTRICITY":0.01033939,"INCLINATION":90.3647,"RA_OF_ASC_NODE":82.3119,"ARG_OF_PERICENTER":349.9671,"MEAN_ANOMALY":9.9411,"EPHEMERIS_TYPE":0,"CLASSIFICATION_TYPE":"U","NORAD_CAT_ID":18361,"ELEMENT_SET_NO":999,"REV_AT_EPOCH":88663,"BSTAR":0.00016627897,"MEAN_MOTION_DOT":1.08e-6,"MEAN_MOTION_DDOT":0},{"OBJECT_NAME":"OSCAR 29","OBJECT_ID":"1987-080B","EPOCH":"2026-03-05T07:17:25.486080","MEAN_MOTION":13.44463941,"ECCENTRICITY":0.01057613,"INCLINATION":90.3657,"RA_OF_ASC_NODE":82.7865,"ARG_OF_PERICENTER":12.4791,"MEAN_ANOMALY":358.1307,"EPHEMERIS_TYPE":0,"CLASSIFICATION_TYPE":"U","NORAD_CAT_ID":18362,"ELEMENT_SET_NO":999,"REV_AT_EPOCH":88619,"BSTAR":0.0001605001,"MEAN_MOTION_DOT":1.05e-6,"MEAN_MOTION_DDOT":0},{"OBJECT_NAME":"OSCAR 23","OBJECT_ID":"1988-033A","EPOCH":"2026-03-05T06:54:02.471040","MEAN_MOTION":13.27802975,"ECCENTRICITY":0.01881054,"INCLINATION":90.3287,"RA_OF_ASC_NODE":18.9639,"ARG_OF_PERICENTER":311.3074,"MEAN_ANOMALY":211.3762,"EPHEMERIS_TYPE":0,"CLASSIFICATION_TYPE":"U","NORAD_CAT_ID":19070,"ELEMENT_SET_NO":999,"REV_AT_EPOCH":83348,"BSTAR":0.0002244206,"MEAN_MOTION_DOT":1.18e-6,"MEAN_MOTION_DDOT":0},{"OBJECT_NAME":"OSCAR 32","OBJECT_ID":"1988-033B","EPOCH":"2026-03-05T07:52:31.944000","MEAN_MOTION":13.27967669,"ECCENTRICITY":0.01862079,"INCLINATION":90.3291,"RA_OF_ASC_NODE":19.1016,"ARG_OF_PERICENTER":297.8945,"MEAN_ANOMALY":218.441,"EPHEMERIS_TYPE":0,"CLASSIFICATION_TYPE":"U","NORAD_CAT_ID":19071,"ELEMENT_SET_NO":999,"REV_AT_EPOCH":83361,"BSTAR":0.00013544227,"MEAN_MOTION_DOT":7.3e-7,"MEAN_MOTION_DDOT":0},{"OBJECT_NAME":"NOVA 2","OBJECT_ID":"1988-052A","EPOCH":"2026-03-05T06:24:19.601856","MEAN_MOTION":13.22947104,"ECCENTRICITY":0.00315344,"INCLINATION":89.9782,"RA_OF_ASC_NODE":78.1316,"ARG_OF_PERICENTER":143.3219,"MEAN_ANOMALY":228.4812,"EPHEMERIS_TYPE":0,"CLASSIFICATION_TYPE":"U","NORAD_CAT_ID":19223,"ELEMENT_SET_NO":999,"REV_AT_EPOCH":82039,"BSTAR":0.0001315557,"MEAN_MOTION_DOT":6.4e-7,"MEAN_MOTION_DDOT":0},{"OBJECT_NAME":"OSCAR 25","OBJECT_ID":"1988-074A","EPOCH":"2026-03-05T08:06:54.834624","MEAN_MOTION":13.42640871,"ECCENTRICITY":0.00967419,"INCLINATION":90.0414,"RA_OF_ASC_NODE":20.5235,"ARG_OF_PERICENTER":11.8579,"MEAN_ANOMALY":142.1858,"EPHEMERIS_TYPE":0,"CLASSIFICATION_TYPE":"U","NORAD_CAT_ID":19419,"ELEMENT_SET_NO":999,"REV_AT_EPOCH":83748,"BSTAR":0.00022707839,"MEAN_MOTION_DOT":1.41e-6,"MEAN_MOTION_DDOT":0}]
