OPS 7218 (TRANSIT 16)   
1 02807U 67048A   26064.29572025  .00000160  00000+0  23358-3 0  9992
2 02807  89.6810 351.3089 0018379 235.1528 293.0573 13.50742966893905
OPS 4947 (TRANSIT 17)   
1 02965U 67092A   26064.33446642  .00000189  00000+0  26323-3 0  9992
2 02965  89.2559  18.1434 0047822 358.6506 153.8829 13.53476762882142
OPS 7034 (TRANSIT 18)   
1 03133U 68012A   26064.11610940  .00000145  00000+0  20558-3 0  9999
2 03133  90.0216 273.8596 0072168 292.5740 186.5341 13.51588143580317
NNSS 19 (TRANSIT 19)    
1 04507U 70067A   26064.18722835  .00000155  00000+0  20291-3 0  9997
2 04507  90.0050 234.5782 0173210  54.4889 307.2281 13.51337249733357
NNSS 20 (TRANSIT 20)    
1 06909U 73081A   26064.05732453  .00000239  00000+0  23334-3 0  9991
2 06909  89.8511 253.8017 0154240 190.7081 169.0787 13.71473061814897
TRANSAT                 
1 10457U 77106A   26064.12256097  .00000082  00000+0  11487-3 0  9991
2 10457  89.6396  75.6408 0024169 319.4819 109.6460 13.48957294378542
NOVA 1                  
1 12458U 81044A   26064.15194608  .00000030  00000+0  49558-4 0  9996
2 12458  89.8426  90.1848 0012713 232.3040 196.1591 13.23286945162764
NOVA 3                  
1 15362U 84110A   26064.12233443  .00000080  00000+0  16886-3 0  9990
2 15362  90.1128  81.4663 0033423 101.7569 349.4716 13.23056320997882
OSCAR 30                
1 15935U 85066A   26064.11866771  .00000090  00000+0  14817-3 0  9995
2 15935  90.1551 101.1630 0166862 210.6986 204.4839 13.36094165975536
OSCAR 24                
1 15936U 85066B   26064.26855412  .00000103  00000+0  17154-3 0  9994
2 15936  90.1688  93.7296 0167708 216.8497 231.9325 13.35951997977459
POLAR BEAR              
1 17070U 86088A   26064.32935276  .00000138  00000+0  13209-3 0  9999
2 17070  89.6251 180.4900 0037926 229.2648 141.3197 13.75269266971145
OSCAR 27                
1 18361U 87080A   26064.05272419  .00000108  00000+0  16628-3 0  9994
2 18361  90.3647  82.3119 0103393 349.9671   9.9411 13.44923687886634
OSCAR 29                
1 18362U 87080B   26064.30376720  .00000105  00000+0  16050-3 0  9999
2 18362  90.3657  82.7865 0105761  12.4791 358.1307 13.44463941886190
OSCAR 23                
1 19070U 88033A   26064.28752860  .00000118  00000+0  22442-3 0  9991
2 19070  90.3287  18.9639 0188105 311.3074 211.3762 13.27802975833488
OSCAR 32                
1 19071U 88033B   26064.32814750  .00000073  00000+0  13544-3 0  9997
2 19071  90.3291  19.1016 0186207 297.8945 218.4410 13.27967669833617
NOVA 2                  
1 19223U 88052A   26064.26689354  .00000064  00000+0  13156-3 0  9999
2 19223  89.9782  78.1316 0031534 143.3219 228.4812 13.22947104820399
OSCAR 25                
1 19419U 88074A   26064.33813466  .00000141  00000+0  22708-3 0  9990
2 19419  90.0414  20.5235 0096741  11.8579 142.1858 13.42640871837484
